STARLINK-2565
1 28280C 21036E   21325.14908127 -.00022753  00000-0 -15245-2 0  3252
2 28280  53.0539 302.5475 0001743  60.9168  44.3306 15.06420940    12
